{
  "norad_id": 63449,
  "name": "STARLINK-33798",
  "history": [
    {
      "epoch": "2026-03-28T04:40:57.666432Z",
      "apogee_km": 476.2400275475575,
      "perigee_km": 474.2694032937052,
      "latitude_deg": 1.1586391140036122e-05,
      "longitude_deg": 160.95408513671546,
      "height_km": 475.9797920049538,
      "semi_major_axis_km": 6853.391715420631,
      "eccentricity": 0.00014377,
      "inclination_deg": 53.1592,
      "raan_deg": 56.8134,
      "arg_perigee_deg": 79.9049,
      "mean_anomaly_deg": 280.2114,
      "mean_motion_rev_day": 15.30186722
    },
    {
      "epoch": "2026-03-29T04:11:45.877920Z",
      "apogee_km": 476.0817766773571,
      "perigee_km": 474.3067638783559,
      "latitude_deg": -9.521442366164818e-06,
      "longitude_deg": 162.73772728589145,
      "height_km": 476.0951947492389,
      "semi_major_axis_km": 6853.331270277857,
      "eccentricity": 0.0001295,
      "inclination_deg": 53.1599,
      "raan_deg": 52.2636,
      "arg_perigee_deg": 90.1866,
      "mean_anomaly_deg": 269.9283,
      "mean_motion_rev_day": 15.30206966
    }
  ]
}